# 2020 05 10 01 14 06.803   29.3740   104.5112   6.047  0.00    0.00    0.00    0.00      000001
GS010   1.779 1 P
GS010   3.379 1 S
GS030   1.124 1 P
GS030   2.204 1 S
# 2020 05 10 03 43 01.929   29.3941   104.4861   5.043  0.00    0.00    0.00    0.00      000002
GS010   1.473 1 P
GS010   2.863 1 S
GS030   1.178 1 P
GS030   2.268 1 S
# 2020 05 10 08 32 48.106   29.3964   104.5436   7.445  0.00    0.00    0.00    0.00      000003
GS030   1.341 1 P
GS030   2.341 1 S
GS010   2.256 1 P
GS010   4.626 1 S
# 2020 05 10 09 04 46.258   29.3735   104.5340   4.996  0.00    0.00    0.00    0.00      000004
GS010   2.024 1 P
GS010   3.874 1 S
GS030   0.919 1 P
GS030   1.799 1 S
# 2020 05 10 09 07 45.545   29.3937   104.5341   6.088  0.00    0.00    0.00    0.00      000005
GS030   0.992 1 P
GS030   1.982 1 S
GS010   2.177 1 P
GS010   4.157 1 S
# 2020 05 10 10 17 39.289   29.3948   104.4901   6.023  0.00    0.00    0.00    0.00      000006
GS010   1.613 1 P
GS010   3.103 1 S
GS030   1.248 1 P
GS030   2.398 1 S
# 2020 05 10 11 48 09.078   29.4135   104.4578   7.172  0.00    0.00    0.00    0.00      000007
GS010   1.664 1 P
GS010   3.174 1 S
GS020   1.174 1 P
GS020   2.274 1 S
# 2020 05 10 12 10 41.781   29.3918   104.4895   5.051  0.00    0.00    0.00    0.00      000008
GS020   1.051 1 P
GS020   1.971 1 S
GS030   1.106 1 P
GS030   2.206 1 S
# 2020 05 10 12 43 37.739   29.3965   104.4866   5.083  0.00    0.00    0.00    0.00      000009
GS010   1.493 1 P
GS010   2.933 1 S
GS020   1.913 1 S
GS030   1.178 1 P
# 2020 05 10 13 28 55.324   29.3884   104.4884   4.860  0.00    0.00    0.00    0.00      000010
GS010   1.418 1 P
GS010   2.888 1 S
GS020   0.968 1 P
GS020   1.948 1 S
GS030   1.143 1 P
GS030   2.203 1 S
# 2020 05 10 14 45 11.432   29.3922   104.4893   4.959  0.00    0.00    0.00    0.00      000011
GS020   1.020 1 P
GS020   1.950 1 S
GS030   1.115 1 P
GS030   2.185 1 S
# 2020 05 10 14 50 24.218   29.3890   104.4878   4.609  0.00    0.00    0.00    0.00      000012
GS010   1.394 1 P
GS010   2.864 1 S
GS020   0.874 1 P
GS020   1.864 1 S
 ML17   1.856 1 P
 ML17   3.736 1 S
GS030   1.099 1 P
GS030   2.199 1 S
# 2020 05 10 15 05 08.978   29.3910   104.4872   5.103  0.00    0.00    0.00    0.00      000013
GS010   1.424 1 P
GS010   2.874 1 S
GS020   1.024 1 P
GS020   1.964 1 S
GS030   1.199 1 P
GS030   2.239 1 S
# 2020 05 10 15 07 21.391   29.3866   104.4880   3.796  0.00    0.00    0.00    0.00      000014
GS010   1.251 1 P
GS010   2.701 1 S
GS020   0.861 1 P
GS020   1.761 1 S
 ML17   1.943 1 P
 ML17   3.743 1 S
GS030   0.936 1 P
GS030   2.036 1 S
# 2020 05 10 15 09 56.127   29.4728   104.4807   2.038  0.00    0.00    0.00    0.00      000015
GS020   1.375 1 P
GS020   2.685 1 S
GS010   2.565 1 P
GS010   4.745 1 S
 ML17   0.127 1 P
 ML17   0.747 1 S
# 2020 05 10 16 08 15.759   29.4299   104.4173   3.005  0.00    0.00    0.00    0.00      000016
GS020   1.053 1 P
GS020   1.973 1 S
GS010   1.413 1 P
GS010   2.923 1 S
# 2020 05 10 16 55 28.132   29.3875   104.4895   4.707  0.00    0.00    0.00    0.00      000017
GS010   1.390 1 P
GS010   2.880 1 S
GS020   0.990 1 P
GS020   1.930 1 S
 ML17   1.852 1 P
 ML17   3.822 1 S
GS030   1.085 1 P
GS030   2.165 1 S
# 2020 05 10 17 52 20.363   29.4030   104.4856   5.672  0.00    0.00    0.00    0.00      000018
GS010   1.619 1 P
GS010   3.059 1 S
GS020   1.089 1 P
GS020   2.019 1 S
GS030   1.264 1 P
# 2020 05 10 17 59 57.771   29.4300   104.4168   2.802  0.00    0.00    0.00    0.00      000019
GS020   1.071 1 P
GS020   1.951 1 S
GS010   1.411 1 P
GS010   2.901 1 S
# 2020 05 10 19 17 50.201   29.3774   104.4856   2.897  0.00    0.00    0.00    0.00      000020
GS010   1.321 1 P
GS010   2.231 1 S
GS020   0.871 1 P
GS020   1.811 1 S
GS030   0.956 1 P
GS030   2.006 1 S
# 2020 05 10 20 23 39.161   29.3903   104.4888   5.428  0.00    0.00    0.00    0.00      000021
GS010   1.511 1 P
GS020   1.111 1 P
GS020   2.061 1 S
GS030   1.146 1 P
GS030   2.296 1 S
# 2020 05 10 21 13 01.665   29.5043   104.4909   1.500  0.00    0.00    0.00    0.00      000022
GS020   1.957 1 P
GS020   4.077 1 S
 ML17   0.329 1 P
 ML17   1.339 1 S
# 2020 05 10 21 33 40.662   29.3888   104.4867   3.877  0.00    0.00    0.00    0.00      000023
GS010   1.260 1 P
GS010   2.710 1 S
GS020   0.820 1 P
GS020   1.710 1 S
 ML17   1.942 1 P
 ML17   3.612 1 S
GS030   0.985 1 P
GS030   2.075 1 S
# 2020 05 10 22 46 19.003   29.3906   104.4879   4.865  0.00    0.00    0.00    0.00      000024
GS020   1.019 1 P
GS020   1.929 1 S
GS030   1.114 1 P
GS030   2.204 1 S
# 2020 05 11 01 04 26.026   29.3939   104.4872   5.217  0.00    0.00    0.00    0.00      000025
GS010   1.496 1 P
GS010   2.916 1 S
GS030   1.181 1 P
GS030   2.271 1 S
# 2020 05 11 03 25 46.955   29.3891   104.4878   3.646  0.00    0.00    0.00    0.00      000026
GS010   1.247 1 P
GS010   2.737 1 S
GS020   0.837 1 P
GS020   1.667 1 S
 ML17   3.629 1 S
# 2020 05 11 03 37 48.860   29.3758   104.4963   0.694  0.00    0.00    0.00    0.00      000027
GS010   1.312 1 P
GS010   2.592 1 S
GS020   0.862 1 P
GS020   1.872 1 S
 ML17   1.924 1 P
 ML17   4.234 1 S
# 2020 05 11 03 55 00.472   29.4027   104.4406   4.588  0.00    0.00    0.00    0.00      000028
GS010   1.240 1 P
GS010   2.220 1 S
GS020   0.820 1 P
GS020   1.740 1 S
# 2020 05 11 04 07 42.396   29.3967   104.4694   5.961  0.00    0.00    0.00    0.00      000029
GS010   1.446 1 P
GS010   2.736 1 S
GS020   1.036 1 P
GS020   2.026 1 S
# 2020 05 11 04 15 50.242   29.3899   104.4853   4.548  0.00    0.00    0.00    0.00      000030
GS010   1.280 1 P
GS010   2.830 1 S
GS020   0.900 1 P
GS020   1.810 1 S
 ML17   1.892 1 P
 ML17   3.662 1 S
# 2020 05 11 04 52 52.382   29.4689   104.4862   6.106  0.00    0.00    0.00    0.00      000031
GS020   1.450 1 P
GS020   3.020 1 S
GS010   2.660 1 P
GS010   4.990 1 S
 ML17   0.832 1 P
 ML17   2.122 1 S
# 2020 05 11 05 57 00.677   29.3894   104.4844   3.963  0.00    0.00    0.00    0.00      000032
GS010   1.225 1 P
GS010   2.685 1 S
GS020   0.795 1 P
GS020   1.685 1 S
 ML17   1.907 1 P
 ML17   3.597 1 S
# 2020 05 11 06 09 45.456   29.4075   104.4849   3.500  0.00    0.00    0.00    0.00      000033
GS010   1.536 1 P
GS010   2.836 1 S
GS020   0.666 1 P
GS020   1.386 1 S
 ML17   1.528 1 P
 ML17   2.878 1 S
# 2020 05 11 06 45 54.342   29.3898   104.4855   5.263  0.00    0.00    0.00    0.00      000034
GS010   1.420 1 P
GS010   2.840 1 S
GS020   1.050 1 P
GS020   1.980 1 S
# 2020 05 11 06 48 06.627   29.4186   104.4396   5.799  0.00    0.00    0.00    0.00      000035
GS010   1.545 1 P
GS010   2.815 1 S
GS020   1.095 1 P
GS020   2.085 1 S
# 2020 05 11 06 56 28.305   29.4291   104.4165   1.985  0.00    0.00    0.00    0.00      000036
GS020   0.967 1 P
GS020   1.887 1 S
GS010   1.377 1 P
GS010   2.857 1 S
# 2020 05 11 07 10 30.279   29.4295   104.4169   1.905  0.00    0.00    0.00    0.00      000037
GS020   0.983 1 P
GS020   1.863 1 S
GS010   1.363 1 P
GS010   2.873 1 S
# 2020 05 11 07 58 31.000   29.3871   104.4836   4.660  0.00    0.00    0.00    0.00      000038
GS010   1.262 1 P
GS010   2.712 1 S
GS020   0.972 1 P
GS020   1.872 1 S
 ML17   1.994 1 P
 ML17   3.684 1 S
# 2020 05 11 07 59 59.264   29.3915   104.4863   4.676  0.00    0.00    0.00    0.00      000039
GS010   1.418 1 P
GS010   2.848 1 S
GS020   0.948 1 P
GS020   1.808 1 S
 ML17   1.700 1 P
 ML17   3.710 1 S
# 2020 05 11 08 02 40.550   29.4884   104.4153  17.111  0.00    0.00    0.00    0.00      000040
 ML17   2.754 1 P
 ML17   5.604 1 S
GS020   3.382 1 P
GS020   5.802 1 S
# 2020 05 11 08 06 26.140   29.3875   104.4855   4.969  0.00    0.00    0.00    0.00      000041
GS010   1.422 1 P
GS010   2.722 1 S
GS020   1.002 1 P
GS020   1.982 1 S
# 2020 05 11 08 19 21.253   29.3895   104.4849   4.346  0.00    0.00    0.00    0.00      000042
GS010   1.259 1 P
GS010   2.719 1 S
GS020   0.889 1 P
GS020   1.749 1 S
 ML17   1.881 1 P
 ML17   3.631 1 S
# 2020 05 11 08 37 32.435   29.4298   104.4170   1.730  0.00    0.00    0.00    0.00      000043
GS020   1.007 1 P
GS020   1.827 1 S
GS010   1.407 1 P
GS010   2.837 1 S
# 2020 05 11 08 59 38.351   29.3883   104.4847   4.929  0.00    0.00    0.00    0.00      000044
GS010   1.431 1 P
GS010   2.701 1 S
GS020   0.981 1 P
GS020   1.951 1 S
# 2020 05 11 09 27 27.232   29.3890   104.4844   4.375  0.00    0.00    0.00    0.00      000045
GS010   1.280 1 P
GS010   2.700 1 S
GS020   0.850 1 P
GS020   1.770 1 S
 ML17   1.872 1 P
 ML17   3.672 1 S
# 2020 05 11 09 37 16.795   29.3872   104.4850   4.969  0.00    0.00    0.00    0.00      000046
GS010   1.417 1 P
GS010   2.707 1 S
GS020   1.007 1 P
GS020   1.977 1 S
# 2020 05 11 09 38 50.753   29.3898   104.4854   3.913  0.00    0.00    0.00    0.00      000047
GS010   1.239 1 P
GS010   2.709 1 S
GS020   0.809 1 P
GS020   1.679 1 S
 ML17   1.881 1 P
 ML17   3.591 1 S
# 2020 05 11 10 19 17.567   29.4299   104.4169   1.979  0.00    0.00    0.00    0.00      000048
GS020   0.965 1 P
GS020   1.885 1 S
GS010   1.405 1 P
GS010   2.875 1 S
# 2020 05 11 10 27 37.960   29.3897   104.4850   4.041  0.00    0.00    0.00    0.00      000049
GS010   1.262 1 P
GS010   2.692 1 S
GS020   0.822 1 P
GS020   1.702 1 S
 ML17   1.884 1 P
 ML17   3.594 1 S
# 2020 05 11 10 37 58.355   29.3722   104.4511   4.749  0.00    0.00    0.00    0.00      000050
 ML17   2.129 1 P
 ML17   4.439 1 S
GS020   1.127 1 P
GS020   2.107 1 S
# 2020 05 11 12 24 57.837   29.3732   104.4513   5.109  0.00    0.00    0.00    0.00      000051
 ML17   2.147 1 P
 ML17   4.397 1 S
GS020   1.155 1 P
GS020   2.145 1 S
# 2020 05 11 12 43 04.717   29.4122   104.4421   0.000  0.00    0.00    0.00    0.00      000052
GS020   0.045 1 P
GS020   0.905 1 S
 ML17   1.897 1 P
 ML17   2.857 1 S
# 2020 05 11 14 34 41.614   29.4734   104.4818  18.083  0.00    0.00    0.00    0.00      000053
GS020   3.318 1 P
GS020   5.708 1 S
 ML17   2.700 1 P
 ML17   5.480 1 S
# 2020 05 11 14 39 14.050   29.3814   104.4538   5.312  0.00    0.00    0.00    0.00      000054
 ML17   1.994 1 P
 ML17   4.194 1 S
GS020   1.032 1 P
GS020   2.022 1 S
# 2020 05 11 15 15 09.677   29.5094   104.4401   0.500  0.00    0.00    0.00    0.00      000055
 ML17   1.077 1 P
 ML17   1.977 1 S
GS020   1.845 1 P
GS020   4.205 1 S
# 2020 05 11 15 41 30.634   29.3923   104.4505   5.004  0.00    0.00    0.00    0.00      000056
GS020   0.888 1 P
GS020   1.818 1 S
 ML17   1.980 1 P
 ML17   3.690 1 S
# 2020 05 11 16 53 03.673   29.3949   104.4440   5.055  0.00    0.00    0.00    0.00      000057
GS020   0.919 1 P
GS020   1.859 1 S
 ML17   1.951 1 P
 ML17   3.701 1 S
# 2020 05 11 17 30 10.139   29.3891   104.4850   3.915  0.00    0.00    0.00    0.00      000058
GS020   0.853 1 P
GS020   1.693 1 S
 ML17   1.885 1 P
 ML17   3.555 1 S
# 2020 05 11 17 49 42.619   29.3814   104.4538   5.295  0.00    0.00    0.00    0.00      000059
 ML17   2.015 1 P
 ML17   4.175 1 S
GS020   1.023 1 P
GS020   2.023 1 S
# 2020 05 11 17 53 59.738   29.3779   104.4373   3.501  0.00    0.00    0.00    0.00      000060
 ML17   1.986 1 P
 ML17   4.436 1 S
GS020   0.924 1 P
GS020   1.904 1 S
# 2020 05 11 18 18 37.014   29.3901   104.4565   4.846  0.00    0.00    0.00    0.00      000061
GS020   0.898 1 P
GS020   1.768 1 S
 ML17   1.970 1 P
 ML17   3.690 1 S
# 2020 05 11 18 37 31.136   29.3868   104.4461   4.804  0.00    0.00    0.00    0.00      000062
 ML17   2.058 1 P
 ML17   3.868 1 S
GS020   0.976 1 P
GS020   1.856 1 S
# 2020 05 11 19 48 35.895   29.3900   104.4565   4.883  0.00    0.00    0.00    0.00      000063
GS020   0.887 1 P
GS020   1.787 1 S
 ML17   1.999 1 P
 ML17   3.679 1 S
# 2020 05 11 21 09 09.678   29.3896   104.4657   4.995  0.00    0.00    0.00    0.00      000064
GS020   0.914 1 P
GS020   1.804 1 S
 ML17   1.936 1 P
 ML17   3.686 1 S
# 2020 05 11 22 58 12.495   29.4292   104.4391   2.869  0.00    0.00    0.00    0.00      000065
 ML17   1.369 1 P
 ML17   2.549 1 S
GS020   0.717 1 P
GS020   1.477 1 S
